{
  "norad_id": 42942,
  "name": "ASIASAT 9",
  "history": [
    {
      "epoch": "2026-03-27T15:24:25.272288Z",
      "apogee_km": 35795.752369421345,
      "perigee_km": 35778.392952603914,
      "latitude_deg": -0.009139616558269791,
      "longitude_deg": 122.12413703528429,
      "height_km": 35795.210311333234,
      "semi_major_axis_km": 42165.20966101263,
      "eccentricity": 0.00020585,
      "inclination_deg": 0.0114,
      "raan_deg": 206.7351,
      "arg_perigee_deg": 158.903,
      "mean_anomaly_deg": 172.6394,
      "mean_motion_rev_day": 1.00270081
    },
    {
      "epoch": "2026-03-30T20:25:05.515392Z",
      "apogee_km": 35795.23672730044,
      "perigee_km": 35778.429770159295,
      "latitude_deg": 0.028664491823091474,
      "longitude_deg": 122.09602186652783,
      "height_km": 35789.627462588775,
      "semi_major_axis_km": 42164.97024872987,
      "eccentricity": 0.0001993,
      "inclination_deg": 0.0116,
      "raan_deg": 214.2784,
      "arg_perigee_deg": 155.4538,
      "mean_anomaly_deg": 246.8741,
      "mean_motion_rev_day": 1.00270935
    },
    {
      "epoch": "2026-03-30T22:07:45.177888Z",
      "apogee_km": 35795.28210503784,
      "perigee_km": 35778.73650162842,
      "latitude_deg": 0.03552856640089357,
      "longitude_deg": 122.09345302321732,
      "height_km": 35786.226312077204,
      "semi_major_axis_km": 42165.14630333313,
      "eccentricity": 0.0001962,
      "inclination_deg": 0.0116,
      "raan_deg": 213.1687,
      "arg_perigee_deg": 157.399,
      "mean_anomaly_deg": 271.7732,
      "mean_motion_rev_day": 1.00270307
    },
    {
      "epoch": "2026-03-31T20:22:33.887712Z",
      "apogee_km": 35796.3610882179,
      "perigee_km": 35777.33624668474,
      "latitude_deg": 0.02904650789500971,
      "longitude_deg": 122.09109783993281,
      "height_km": 35790.01256606816,
      "semi_major_axis_km": 42164.98566745132,
      "eccentricity": 0.0002256,
      "inclination_deg": 0.0121,
      "raan_deg": 215.6249,
      "arg_perigee_deg": 153.9894,
      "mean_anomaly_deg": 247.3449,
      "mean_motion_rev_day": 1.0027088
    },
    {
      "epoch": "2026-03-31T23:47:59.188128Z",
      "apogee_km": 35796.32577954024,
      "perigee_km": 35777.39622533702,
      "latitude_deg": 0.03679413801666234,
      "longitude_deg": 122.09161016800667,
      "height_km": 35781.746665829385,
      "semi_major_axis_km": 42164.99800243863,
      "eccentricity": 0.00022447,
      "inclination_deg": 0.0119,
      "raan_deg": 215.6981,
      "arg_perigee_deg": 153.885,
      "mean_anomaly_deg": 298.8717,
      "mean_motion_rev_day": 1.00270836
    },
    {
      "epoch": "2026-04-03T21:57:50.355360Z",
      "apogee_km": 35796.372776126685,
      "perigee_km": 35777.64639122594,
      "latitude_deg": 0.03676356179596794,
      "longitude_deg": 122.07814741537501,
      "height_km": 35785.93589660206,
      "semi_major_axis_km": 42165.14658367632,
      "eccentricity": 0.00022206,
      "inclination_deg": 0.014,
      "raan_deg": 218.3204,
      "arg_perigee_deg": 152.0238,
      "mean_anomaly_deg": 273.4532,
      "mean_motion_rev_day": 1.00270306
    },
    {
      "epoch": "2026-04-05T20:10:17.515200Z",
      "apogee_km": 35795.006079381885,
      "perigee_km": 35779.000192186344,
      "latitude_deg": 0.022842757030420834,
      "longitude_deg": 122.07949427412068,
      "height_km": 35790.05594612049,
      "semi_major_axis_km": 42165.14013578412,
      "eccentricity": 0.0001898,
      "inclination_deg": 0.014,
      "raan_deg": 222.5396,
      "arg_perigee_deg": 152.5579,
      "mean_anomaly_deg": 243.7095,
      "mean_motion_rev_day": 1.00270329
    },
    {
      "epoch": "2026-04-05T23:35:36.911040Z",
      "apogee_km": 35794.75166296508,
      "perigee_km": 35776.93400836612,
      "latitude_deg": 0.03569953059754257,
      "longitude_deg": 122.07968280730971,
      "height_km": 35781.83185007508,
      "semi_major_axis_km": 42163.9798356656,
      "eccentricity": 0.00021129,
      "inclination_deg": 0.0134,
      "raan_deg": 222.8735,
      "arg_perigee_deg": 154.3983,
      "mean_anomaly_deg": 293.0097,
      "mean_motion_rev_day": 1.00274468
    },
    {
      "epoch": "2026-04-07T09:49:16.906080Z",
      "apogee_km": 35796.08578218258,
      "perigee_km": 35776.684199033814,
      "latitude_deg": -0.029636228851151747,
      "longitude_deg": 122.12794710218805,
      "height_km": 35785.77115073093,
      "semi_major_axis_km": 42164.5219906082,
      "eccentricity": 0.00023007,
      "inclination_deg": 0.0124,
      "raan_deg": 220.7328,
      "arg_perigee_deg": 154.9952,
      "mean_anomaly_deg": 89.3764,
      "mean_motion_rev_day": 1.00272534
    },
    {
      "epoch": "2026-04-08T13:51:26.799264Z",
      "apogee_km": 35794.86491844947,
      "perigee_km": 35777.73013554639,
      "latitude_deg": -0.02687259446034682,
      "longitude_deg": 122.11482158903786,
      "height_km": 35793.333003412394,
      "semi_major_axis_km": 42164.43452699794,
      "eccentricity": 0.00020319,
      "inclination_deg": 0.0134,
      "raan_deg": 228.2785,
      "arg_perigee_deg": 147.2546,
      "mean_anomaly_deg": 151.2666,
      "mean_motion_rev_day": 1.00272846
    },
    {
      "epoch": "2026-04-08T21:45:32.342112Z",
      "apogee_km": 35794.99253581137,
      "perigee_km": 35778.16038219853,
      "latitude_deg": 0.028534808435094042,
      "longitude_deg": 122.08065969825809,
      "height_km": 35786.177754431395,
      "semi_major_axis_km": 42164.71345900495,
      "eccentricity": 0.0001996,
      "inclination_deg": 0.0133,
      "raan_deg": 225.045,
      "arg_perigee_deg": 151.3522,
      "mean_anomaly_deg": 269.2503,
      "mean_motion_rev_day": 1.00271851
    },
    {
      "epoch": "2026-04-10T13:07:12.758016Z",
      "apogee_km": 35796.75848984711,
      "perigee_km": 35776.31705551731,
      "latitude_deg": -0.02798327139143242,
      "longitude_deg": 122.12604530975834,
      "height_km": 35794.03892449272,
      "semi_major_axis_km": 42164.674772682214,
      "eccentricity": 0.0002424,
      "inclination_deg": 0.0132,
      "raan_deg": 226.7796,
      "arg_perigee_deg": 149.624,
      "mean_anomaly_deg": 141.2848,
      "mean_motion_rev_day": 1.00271989
    },
    {
      "epoch": "2026-04-11T20:31:38.397792Z",
      "apogee_km": 35797.23568943734,
      "perigee_km": 35776.38090749272,
      "latitude_deg": 0.01922303636863856,
      "longitude_deg": 122.0795305894005,
      "height_km": 35789.91899021305,
      "semi_major_axis_km": 42164.94529846503,
      "eccentricity": 0.0002473,
      "inclination_deg": 0.0122,
      "raan_deg": 139.3912,
      "arg_perigee_deg": 240.9554,
      "mean_anomaly_deg": 249.7376,
      "mean_motion_rev_day": 1.00271024
    },
    {
      "epoch": "2026-04-13T19:50:11.188896Z",
      "apogee_km": 35795.90825874918,
      "perigee_km": 35777.99652877472,
      "latitude_deg": 0.02526817201462667,
      "longitude_deg": 122.07732344650547,
      "height_km": 35791.662587676896,
      "semi_major_axis_km": 42165.089393761955,
      "eccentricity": 0.0002124,
      "inclination_deg": 0.014,
      "raan_deg": 149.9467,
      "arg_perigee_deg": 237.2817,
      "mean_anomaly_deg": 234.4301,
      "mean_motion_rev_day": 1.0027051
    },
    {
      "epoch": "2026-04-14T11:14:17.606976Z",
      "apogee_km": 35795.96062185099,
      "perigee_km": 35777.99406662891,
      "latitude_deg": -0.01724885160559615,
      "longitude_deg": 122.11655858042093,
      "height_km": 35788.995809154025,
      "semi_major_axis_km": 42165.114344239955,
      "eccentricity": 0.00021305,
      "inclination_deg": 0.016,
      "raan_deg": 143.1689,
      "arg_perigee_deg": 243.9844,
      "mean_anomaly_deg": 106.1617,
      "mean_motion_rev_day": 1.00270421
    },
    {
      "epoch": "2026-04-15T19:45:04.290048Z",
      "apogee_km": 35796.91088542395,
      "perigee_km": 35777.72560328777,
      "latitude_deg": 0.019712644154501403,
      "longitude_deg": 122.06956021149801,
      "height_km": 35792.48774834227,
      "semi_major_axis_km": 42165.455244355864,
      "eccentricity": 0.0002275,
      "inclination_deg": 0.0136,
      "raan_deg": 144.2943,
      "arg_perigee_deg": 244.2111,
      "mean_anomaly_deg": 233.8399,
      "mean_motion_rev_day": 1.00269205
    },
    {
      "epoch": "2026-04-15T23:10:22.839168Z",
      "apogee_km": 35796.91878228656,
      "perigee_km": 35777.582578804,
      "latitude_deg": 0.01681026313252208,
      "longitude_deg": 122.06397139241825,
      "height_km": 35784.0826211587,
      "semi_major_axis_km": 42165.38768054528,
      "eccentricity": 0.00022929,
      "inclination_deg": 0.0138,
      "raan_deg": 145.4957,
      "arg_perigee_deg": 242.4954,
      "mean_anomaly_deg": 285.8209,
      "mean_motion_rev_day": 1.00269446
    },
    {
      "epoch": "2026-04-17T21:22:35.846688Z",
      "apogee_km": 35795.33990076949,
      "perigee_km": 35778.31874716384,
      "latitude_deg": 0.027157466210373994,
      "longitude_deg": 122.06441508687251,
      "height_km": 35788.06041497623,
      "semi_major_axis_km": 42164.96632396667,
      "eccentricity": 0.00020184,
      "inclination_deg": 0.01,
      "raan_deg": 243.9032,
      "arg_perigee_deg": 146.6373,
      "mean_anomaly_deg": 258.2224,
      "mean_motion_rev_day": 1.00270949
    },
    {
      "epoch": "2026-04-18T23:02:45.733056Z",
      "apogee_km": 35796.42526950513,
      "perigee_km": 35777.42569235122,
      "latitude_deg": 0.03240618289493748,
      "longitude_deg": 122.0636397198764,
      "height_km": 35783.7866971026,
      "semi_major_axis_km": 42165.06248092818,
      "eccentricity": 0.0002253,
      "inclination_deg": 0.0099,
      "raan_deg": 248.6368,
      "arg_perigee_deg": 140.2353,
      "mean_anomaly_deg": 285.9863,
      "mean_motion_rev_day": 1.00270606
    }
  ]
}